[{"OBJECT_NAME":"ONEWEB-0182","OBJECT_ID":"2021-031U","EPOCH":"2026-03-09T16:42:32.721984","MEAN_MOTION":13.14502258,"ECCENTRICITY":0.00015336,"INCLINATION":87.8984,"RA_OF_ASC_NODE":309.5585,"ARG_OF_PERICENTER":72.9127,"MEAN_ANOMALY":287.217,"EPHEMERIS_TYPE":0,"CLASSIFICATION_TYPE":"U","NORAD_CAT_ID":48228,"ELEMENT_SET_NO":999,"REV_AT_EPOCH":23536,"BSTAR":-0.00056599097,"MEAN_MOTION_DOT":-1.97e-6,"MEAN_MOTION_DDOT":0},{"OBJECT_NAME":"UNKNOWN","OBJECT_ID":"","EPOCH":"2026-03-08T06:50:36.045024","MEAN_MOTION":13.430186,"ECCENTRICITY":0.02055608,"INCLINATION":82.9986,"RA_OF_ASC_NODE":84.0722,"ARG_OF_PERICENTER":326.7119,"MEAN_ANOMALY":32.1226,"EPHEMERIS_TYPE":0,"CLASSIFICATION_TYPE":"U","NORAD_CAT_ID":270169,"ELEMENT_SET_NO":999,"REV_AT_EPOCH":30758,"BSTAR":0.0013727164,"MEAN_MOTION_DOT":8.99e-6,"MEAN_MOTION_DDOT":0}]
